OBJECT_NAME,OBJECT_ID,EPOCH,MEAN_MOTION,ECCENTRICITY,INCLINATION,RA_OF_ASC_NODE,ARG_OF_PERICENTER,MEAN_ANOMALY,EPHEMERIS_TYPE,CLASSIFICATION_TYPE,NORAD_CAT_ID,ELEMENT_SET_NO,REV_AT_EPOCH,BSTAR,MEAN_MOTION_DOT,MEAN_MOTION_DDOT
KUZGTU 1 (RS47S),2023-091AV,2026-06-18T14:29:34.901088,15.29888680,.0012277,97.5060,234.0984,93.7490,266.5155,0,U,57217,999,16459,.32998218E-3,.9495E-4,0
SONATE-2,2024-043Q,2026-06-17T23:20:56.168448,15.58769943,.00070884,97.5538,319.4165,192.8072,167.3005,0,U,59112,999,12801,.43245733E-3,.33352E-3,0
MESAT1,2024-125G,2026-06-18T07:44:23.426304,15.63304730,.00096676,97.2281,26.8304,199.4839,160.6052,0,U,60209,999,10974,.50655202E-3,.46639E-3,0
OOV-CUBE (TUBSAT-30),2024-128F,2026-06-18T14:03:38.935584,15.02778204,.00444637,61.9932,220.6959,134.0792,226.3973,0,U,60240,999,10632,.11901618E-3,.1416E-4,0
COLIBRI-S (RS67S),2024-199M,2026-06-18T14:43:24.570048,15.47772862,.00062687,97.2988,43.4802,271.8056,88.2477,0,U,61746,999,13763,.32216421E-3,.16636E-3,0
HORS 3 (RS81S),2024-199U,2026-06-18T15:12:49.435200,15.55058704,.00037642,97.2970,45.5032,269.5308,90.5515,0,U,61753,999,13778,.46382906E-3,.31144E-3,0
HORS 4 (RS82S),2024-199V,2026-06-18T14:09:46.725696,15.59790654,.00032226,97.2914,46.6691,249.0083,111.0829,0,U,61754,999,13786,.48590109E-3,.38957E-3,0
SIT-2086,2024-199AF,2026-06-18T14:44:01.631328,15.53167742,.00047097,97.2926,45.9544,243.0648,117.0125,0,U,61764,999,13465,.47241569E-3,.29615E-3,0
HYPERVIEW 1G (RS66S),2024-199AP,2026-06-18T12:33:07.701120,15.76152791,.00040922,97.2864,49.3091,213.0172,147.0839,0,U,61772,999,13488,.76127735E-3,.119986E-2,0
ALTAIR (RS65S),2024-199AW,2026-06-18T14:37:29.167104,15.37040005,.00110075,97.3023,38.9506,305.4293,54.5923,0,U,61779,999,13733,.17635816E-3,.6321E-4,0
ASRTU-1 (AO-123),2024-199AY,2026-06-18T14:21:51.536160,15.35693092,.00121886,97.2994,38.2563,308.4675,51.5475,0,U,61781,999,13414,.18709174E-3,.6428E-4,0
SAMSAT-IONOSPHERE (RS75S),2024-199BB,2026-06-18T14:25:43.884768,15.57729874,.00059316,97.2937,45.5216,269.1650,90.8926,0,U,61784,999,13778,.4813576E-3,.35716E-3,0
RTU MIREA 1 (RS51S),2024-199BC,2026-06-18T14:56:21.417504,15.61216737,.00055629,97.2923,46.3825,259.9664,100.0966,0,U,61785,999,13469,.53477176E-3,.45341E-3,0
TEVEL2-4,2025-052D,2026-06-18T03:50:47.174208,15.34638877,.00048922,97.3899,65.5534,101.1057,259.0736,0,U,63213,999,7026,.416794E-3,.13925E-3,0
TEVEL2-5,2025-052E,2026-06-18T05:54:22.198464,15.34468179,.00048295,97.3896,65.5869,102.4501,257.7282,0,U,63214,999,7027,.43268963E-3,.14381E-3,0
TEVEL2-6,2025-052F,2026-06-18T10:53:52.882656,15.34437897,.00047522,97.3903,65.7795,102.8311,257.3463,0,U,63215,999,7030,.43456048E-3,.1443E-3,0
TEVEL2-1,2025-052H,2026-06-16T23:35:41.336448,15.33862790,.0004776,97.3878,63.9315,114.0246,246.1497,0,U,63217,999,7006,.46759393E-3,.15254E-3,0
TEVEL2-3,2025-052J,2026-06-18T05:12:47.301696,15.33951855,.00047835,97.3876,65.1876,111.6864,248.4889,0,U,63218,999,7025,.41717175E-3,.13636E-3,0
TEVEL2-2,2025-052K,2026-06-18T14:44:37.860576,15.33915374,.00047719,97.3876,65.5651,111.0401,249.1353,0,U,63219,999,7031,.41444408E-3,.13531E-3,0
TEVEL2-9,2025-052AD,2026-06-18T04:50:24.775296,15.31922489,.00078828,97.3936,64.5254,127.9534,232.2421,0,U,63237,999,7018,.40695732E-3,.12483E-3,0
TEVEL2-7,2025-052AE,2026-06-18T10:31:50.168640,15.31632638,.00079641,97.3937,64.6775,127.7486,232.4478,0,U,63238,999,7021,.40405631E-3,.12282E-3,0
TEVEL2-8,2025-052AF,2026-06-18T06:01:29.975232,15.31612333,.00079408,97.3939,64.4672,128.6934,231.5019,0,U,63239,999,7018,.41846124E-3,.12715E-3,0
INNOSAT 16 (RS92S7),2025-155C,2026-06-18T13:49:56.512128,15.25468327,.00107197,97.4567,136.6996,170.6194,189.5246,0,U,64878,999,8088,.1822443E-3,.4545E-4,0
GEOSCAN 6 (RS92S6),2025-155D,2026-06-18T14:53:09.938688,15.30173529,.00085365,97.4561,138.1775,157.8347,202.3264,0,U,64879,999,8098,.26949911E-3,.7799E-4,0
GEOSCAN 1 (RS92S1),2025-155E,2026-06-18T14:55:53.379840,15.30770094,.00084643,97.4557,138.3287,157.5174,202.6439,0,U,64880,999,8099,.28090309E-3,.8285E-4,0
239ALFEROV (RS61S),2025-155F,2026-06-18T14:09:13.189536,15.32970429,.00082112,97.4558,138.8623,154.6965,205.4680,0,U,64881,999,8102,.36427984E-3,.11538E-3,0
GEOSCAN 2 (RS92S2),2025-155Q,2026-06-18T14:46:25.773312,15.31041787,.00082579,97.4557,138.4753,145.1673,215.0110,0,U,64890,999,8100,.28993569E-3,.8626E-4,0
GEOSCAN 5 (RS92S5),2025-155R,2026-06-18T13:52:59.838240,15.33287666,.00069491,97.4551,138.9889,158.2767,201.8772,0,U,64891,999,8103,.34954079E-3,.11175E-3,0
GEOSCAN 4 (RS92S4),2025-155S,2026-06-18T13:30:01.951776,15.33441890,.00070068,97.4554,139.0218,157.9314,202.2231,0,U,64892,999,8103,.32878859E-3,.10558E-3,0
GEOSCAN 3 (RS92S3),2025-155T,2026-06-18T13:28:33.504096,15.35434361,.00069588,97.4543,139.4544,156.2579,203.8987,0,U,64893,999,8106,.40683E-3,.13943E-3,0
