KUZGTU 1 (RS47S)        
1 57217U 23091AV  26169.60387617  .00009495  00000+0  32998-3 0  9999
2 57217  97.5060 234.0984 0012277  93.7490 266.5155 15.29888680164592
SONATE-2                
1 59112U 24043Q   26168.97287232  .00033352  00000+0  43246-3 0  9991
2 59112  97.5538 319.4165 0007088 192.8072 167.3005 15.58769943128019
MESAT1                  
1 60209U 24125G   26169.32249336  .00046639  00000+0  50655-3 0  9998
2 60209  97.2281  26.8304 0009667 199.4839 160.6052 15.63304730109745
OOV-CUBE (TUBSAT-30)    
1 60240U 24128F   26169.58586731  .00001416  00000+0  11902-3 0  9993
2 60240  61.9932 220.6959 0044463 134.0792 226.3973 15.02778204106324
COLIBRI-S (RS67S)       
1 61746U 24199M   26169.61347882  .00016636  00000+0  32216-3 0  9990
2 61746  97.2988  43.4802 0006268 271.8056  88.2477 15.47772862137636
HORS 3 (RS81S)          
1 61753U 24199U   26169.63390550  .00031144  00000+0  46383-3 0  9991
2 61753  97.2970  45.5032 0003764 269.5308  90.5515 15.55058704137781
HORS 4 (RS82S)          
1 61754U 24199V   26169.59012414  .00038957  00000+0  48590-3 0  9998
2 61754  97.2914  46.6691 0003222 249.0083 111.0829 15.59790654137862
SIT-2086                
1 61764U 24199AF  26169.61390777  .00029615  00000+0  47242-3 0  9997
2 61764  97.2926  45.9544 0004709 243.0648 117.0125 15.53167742134656
HYPERVIEW 1G (RS66S)    
1 61772U 24199AP  26169.52300580  .00119986  00000+0  76128-3 0  9995
2 61772  97.2864  49.3091 0004092 213.0172 147.0839 15.76152791134888
ALTAIR (RS65S)          
1 61779U 24199AW  26169.60936536  .00006321  00000+0  17636-3 0  9994
2 61779  97.3023  38.9506 0011007 305.4293  54.5923 15.37040005137332
ASRTU-1 (AO-123)        
1 61781U 24199AY  26169.59851315  .00006428  00000+0  18709-3 0  9996
2 61781  97.2994  38.2563 0012188 308.4675  51.5475 15.35693092134148
SAMSAT-IONOSPHERE (RS7*)
1 61784U 24199BB  26169.60120237  .00035716  00000+0  48136-3 0  9992
2 61784  97.2937  45.5216 0005931 269.1650  90.8926 15.57729874137780
RTU MIREA 1 (RS51S)     
1 61785U 24199BC  26169.62247011  .00045341  00000+0  53477-3 0  9994
2 61785  97.2923  46.3825 0005562 259.9664 100.0966 15.61216737134692
TEVEL2-4                
1 63213U 25052D   26169.16026822  .00013925  00000+0  41679-3 0  9999
2 63213  97.3899  65.5534 0004892 101.1057 259.0736 15.34638877 70267
TEVEL2-5                
1 63214U 25052E   26169.24609026  .00014381  00000+0  43269-3 0  9996
2 63214  97.3896  65.5869 0004829 102.4501 257.7282 15.34468179 70272
TEVEL2-6                
1 63215U 25052F   26169.45408429  .00014430  00000+0  43456-3 0  9997
2 63215  97.3903  65.7795 0004752 102.8311 257.3463 15.34437897 70304
TEVEL2-1                
1 63217U 25052H   26167.98311732  .00015254  00000+0  46759-3 0  9999
2 63217  97.3878  63.9315 0004776 114.0246 246.1497 15.33862790 70062
TEVEL2-3                
1 63218U 25052J   26169.21721414  .00013636  00000+0  41717-3 0  9991
2 63218  97.3876  65.1876 0004783 111.6864 248.4889 15.33951855 70256
TEVEL2-2                
1 63219U 25052K   26169.61432709  .00013531  00000+0  41444-3 0  9993
2 63219  97.3876  65.5651 0004771 111.0401 249.1353 15.33915374 70317
TEVEL2-9                
1 63237U 25052AD  26169.20167564  .00012483  00000+0  40696-3 0  9995
2 63237  97.3936  64.5254 0007882 127.9534 232.2421 15.31922489 70188
TEVEL2-7                
1 63238U 25052AE  26169.43877510  .00012282  00000+0  40406-3 0  9996
2 63238  97.3937  64.6775 0007964 127.7486 232.4478 15.31632638 70216
TEVEL2-8                
1 63239U 25052AF  26169.25104138  .00012715  00000+0  41846-3 0  9996
2 63239  97.3939  64.4672 0007940 128.6934 231.5019 15.31612333 70182
INNOSAT 16 (RS92S7)     
1 64878U 25155C   26169.57634852  .00004545  00000+0  18224-3 0  9992
2 64878  97.4567 136.6996 0010719 170.6194 189.5246 15.25468327 80881
GEOSCAN 6 (RS92S6)      
1 64879U 25155D   26169.62025392  .00007799  00000+0  26950-3 0  9991
2 64879  97.4561 138.1775 0008536 157.8347 202.3264 15.30173529 80987
GEOSCAN 1 (RS92S1)      
1 64880U 25155E   26169.62214560  .00008285  00000+0  28090-3 0  9998
2 64880  97.4557 138.3287 0008464 157.5174 202.6439 15.30770094 80997
239ALFEROV (RS61S)      
1 64881U 25155F   26169.58973599  .00011538  00000+0  36428-3 0  9997
2 64881  97.4558 138.8623 0008211 154.6965 205.4680 15.32970429 81024
GEOSCAN 2 (RS92S2)      
1 64890U 25155Q   26169.61557608  .00008626  00000+0  28994-3 0  9993
2 64890  97.4557 138.4753 0008257 145.1673 215.0110 15.31041787 81002
GEOSCAN 5 (RS92S5)      
1 64891U 25155R   26169.57847035  .00011175  00000+0  34954-3 0  9991
2 64891  97.4551 138.9889 0006949 158.2767 201.8772 15.33287666 81037
GEOSCAN 4 (RS92S4)      
1 64892U 25155S   26169.56252259  .00010558  00000+0  32879-3 0  9997
2 64892  97.4554 139.0218 0007006 157.9314 202.2231 15.33441890 81034
GEOSCAN 3 (RS92S3)      
1 64893U 25155T   26169.56149889  .00013943  00000+0  40683-3 0  9995
2 64893  97.4543 139.4544 0006958 156.2579 203.8987 15.35434361 81064
